#dP2023  4  6 12  0  0.00000000      96 __u+U ITR00 EXT  IAC
## 2256 388800.00000000   900.00000000 60040 0.5000000000000
+  119   C06C07C08C09C10C11C12C13C14C16C19C20C21C22C23C24C25
+        C26C27C28C29C30C32C33C34C35C36C37C38C39C40C41C42C43
+        C44C45C46E01E02E03E04E05E07E08E09E10E11E12E13E14E15
+        E18E19E21E24E25E26E27E30E31E33E34E36G01G02G03G04G05
+        G06G07G08G09G10G11G12G13G14G15G16G17G18G19G20G21G22
+        G23G24G25G26G27G28G29G30G31G32J02J03J04R01R02R03R04
+        R05R07R08R09R11R12R13R14R15R16R17R18R19R20R22R24R25
++        10  8 10  9 10  9  9 10  8  9  9  8  9  8  7  8  8
++         8  8  8  7  9  8 10  9  8  8  8  9  8 10  9  9  7
++         7  9  9  6  8  7  8  7  9  8  7 10  9  8 10  6 10
++         8  8  7  7  7 11  7  7  7 10 11 11  7  8  7  7  7
++         6  8  7  9  6  8  6  7  7  6  7  7  9  7  6  7  7
++         7  6  7  7  7  9  8  7  7  8  8 10 11  8  9  9  8
++         8  7  6  9  8  7  9  7  8  8  8  7  9  9  8  8  8
%c M  cc GPS ccc cccc cccc cccc cccc ccccc ccccc ccccc ccccc
%c cc cc ccc ccc cccc cccc cccc cccc ccccc ccccc ccccc ccccc
%f  0.0000000  0.000000000  0.00000000000  0.000000000000000
%f  0.0000000  0.000000000  0.00000000000  0.000000000000000
%i    0    0    0    0      0      0      0      0         0
%i    0    0    0    0      0      0      0      0         0
/* IAC                                ULTRA-RAPID PREDICTION
/* S/V CLOCKS ARE ALIGNED TO GNSS TIME                      
/* G:C1WC2W R:C1PC2P E:C1XC5X C:C2IC6I J:C1CC2S             
/* PCV:IGS20_2247 OL/AL:FES2004  NONE     YN ORB:CoN CLK:CoN
*  2023 04 07  5 45  0.00000000
PC06  -3391.093184  36739.456136 -20138.202977   -197.247689
PC07 -12253.393394  25593.741084  31193.898270   -133.427464
PC08 -19044.673324  35016.117271 -14005.449407    508.807588
PC09   2809.510832  40167.616035 -11117.654800    795.322268
PC10  -2673.597065  27249.459983  32349.544428    -27.262170
PC11  11259.321082 -11111.237703 -22925.561635    748.526935
PC12  18698.515119   8306.633149 -18943.993240    555.491028
PC13 -13067.477186  35320.447063 -19060.814755    247.172348
PC14  21574.576915  -9950.651371  14710.090787     90.597951
PC16  -4857.538277  35091.322208 -22409.979116    116.718245
PC19 -12666.384524  13929.564073 -20557.628683   -899.555615
PC20 -26162.814536   5294.372905  -8059.382372    639.191168
PC21  24908.800453   7255.303063 -10294.531128   -909.392333
PC22   8839.407770  14982.864769 -21821.076251   -548.018397
PC23    275.496486 -22943.989333 -15880.120708   -901.025076
PC24  19945.896569 -10435.822859  16463.046994   -201.300959
PC25  13246.538385 -24543.088550   -566.848027    101.811002
PC26  14580.119864   7249.634022  22646.296391   -102.770078
PC27 -18928.163302 -16059.501070  12744.568889    121.938035
PC28 -11267.455104 -25313.081997  -3334.399394     89.685059
PC29  -3561.488604  19980.903066  19140.526993    103.801475
PC30 -16682.329812   2363.627948  22239.141377      0.520621
PC32 -24886.106193  -7143.740033  10412.332006   -583.762930
PC33  12710.687156 -14023.063056  20524.632573   -872.461408
PC34  16092.161621  -3790.486940 -22493.091122    143.468804
PC35  11540.198459  25028.897171   4213.933930    650.612847
PC36 -14237.356353  24004.972719   -115.318879   -516.365264
PC37 -13672.585874  -8846.325332 -22652.918028   -792.525452
PC38 -23244.367162  34862.496980  -5259.249999     70.102988
PC39  -7616.897598  31208.772959 -27150.413475     -2.465031
PC40 -16787.130566  19002.209969  33625.337005    -19.667341
PC41  -8107.498213 -15147.614636  22046.284778   -819.191011
PC42  26676.722771  -4592.776279   6892.581462   -749.005554
PC43   4358.105993 -19490.602585 -19513.258545     15.488212
PC44  19557.159263  15406.823218 -12585.125415     68.222015
PC45    -12.761256  22700.662358  16241.157964    -81.926685
PC46 -19924.132705  12060.352703 -15406.290833    -45.255708
PE01  -3146.325233 -16958.477581 -24059.844060     -5.729224
PE02   3627.851688  16755.219245  24123.493180     30.881302
PE03  14880.348585  21195.786848 -14342.216612   -666.760328
PE04 -26086.037718 -13596.482256  -3274.758905    -95.162885
PE05  -5392.071984  16501.732184 -23965.987495    -79.138178
PE07  22331.428259  -2068.761603  19334.088899    -35.719819
PE08  26063.473026  13702.870776   3084.943404    -63.423160
PE09 -22357.376996   1860.145093 -19294.197701   -896.210898
PE10 -15973.528904  -1003.882442  24892.184268   -524.674587
PE11 -15123.418184  11314.854123  22773.551498   1521.127913
PE12 -14389.089084 -12101.797084  22865.530772   -488.790878
PE13  15207.655890 -10466.920342 -23139.707304    -18.343953
PE14  21467.977026  20804.316245   3652.592125    190.115115
PE15  14247.601278  12408.579380 -22778.457835    -12.829882
PE18 -10096.816589 -21440.434578 -12235.173486   -194.362915
PE19 -12418.103655 -21289.811128  16406.028142  -2824.745048
PE21  15563.637254 -20033.929207 -15253.062032   -521.948352
PE24 -27124.390450  11298.394052  -3706.728553    -30.576627
PE25 -15875.146004  19992.341260  14987.576539   -602.813027
PE26   6905.570939 -27285.684751  -9173.717005     67.963856
PE27  26924.316173 -11927.295495   2934.722214    -19.016173
PE30  21924.904958   3706.198839  19515.609528    -72.897453
PE31 -22315.096449  -3112.667910 -19199.490349   -520.633504
PE33  -4880.722393 -27792.556964   8970.924933   -446.965183
PE34   5032.399132  27707.077399  -9124.547087    -38.924237
PE36  -7257.621700  26905.584368   9955.759253    -37.663120
PG01 -13174.297797  14067.978547  17782.630816    195.504409
PG02  10615.691019 -18564.927761 -15289.872212   -608.434614
PG03 -22797.900183  13124.200196  -3291.803944   -334.709298
PG04 -15119.352311   6751.511744 -20779.205020     10.870850
PG05  23515.680593  -2705.383744 -12337.108656   -122.448299
PG06   5829.990437  22831.827193 -12090.908027    585.845554
PG07  -6734.733314  24494.679010  -6381.399726    206.856451
PG08 -22650.720362  -3424.818632  13703.098765   -116.578254
PG09  -4604.912039  15114.420010 -21414.697898   -185.174524
PG10  -2354.506857 -15154.718065  21827.032464    -31.776692
PG11  12900.090745  10746.198722 -20580.320546   -154.371630
PG12  24348.959622 -10423.623814  -1383.980446   -360.892676
PG13  21999.628862  11897.317984   9058.245045    502.059537
PG14  -1160.468098  16616.322257  20666.447715     17.695690
PG15  22811.545049    458.932073  13360.271851     28.398164
PG16 -22664.437444  -2285.318886 -14334.071437   -510.576128
PG17   8559.142971  20144.372228  15402.563017    709.375172
PG18   4897.885644 -25823.110483  -3222.955703   -213.244579
PG19  16422.697080  20009.412041   6353.255760    300.321739
PG20  17882.924513   4282.831044 -19060.557422    440.457481
PG21 -15197.389254   4375.331618  21797.213567    154.278396
PG22 -18268.987321 -19017.619025   4281.166837    459.608827
PG23  10394.240714 -17892.027277  16571.791593     15.204180
PG24  14397.962799  -9946.275421  19511.411020   -142.129534
PG25  17632.319915 -16826.385740 -10536.450623    433.703849
PG26 -13224.304986 -10255.335552 -20799.955606    241.862423
PG27 -23189.589854 -12714.428054   4005.882030     64.344610
PG28  -5932.652076 -23803.913785 -10214.106144     60.429702
PG29   9195.446096 -11707.320446 -22045.872880   -594.422324
PG30   1259.588568  25922.405426   5039.992725   -523.554320
PG31  -9495.298304 -18715.977791 -16190.059651   -213.404167
PG32 -12416.342378 -19682.679066  13160.232193   -444.823100
PJ02 -30711.998710  27857.293443  12885.996733     -1.440764
PJ03 -26359.103901  24638.776023  26874.129167      1.921118
PJ04 -32352.986218  20399.835996 -12586.604553     94.160493
PR01 -23661.078815    632.797103  -9482.341889     26.206581
PR02  -9865.021679   8484.847162 -21901.444641    -22.981734
PR03   9205.683223  11726.164338 -20630.028129     75.572986
PR04  22702.124796   8386.088210  -8009.154539    182.345279
PR05  23857.177690    598.549135   8995.485776    110.573414
PR07 -10078.035856 -11761.544530  20327.867062     53.304278
PR08 -22812.338786  -8294.373825   7950.194847    -70.233280
PR09  14424.161870 -20689.564290  -4066.665708    113.355167
PR11 -10066.100248  -4906.055797 -22910.215263    -31.545858
PR12 -18392.811550  11735.212010 -13209.356389     26.252606
PR13 -15487.388766  20144.517228   2236.804181    -33.728035
PR14  -2598.366570  17113.468559  18736.222461     24.505282
PR15  10928.531136   4023.684161  22709.572059     89.945853
PR16  18200.937003 -11666.982909  13569.023920     13.240488
PR17   7346.399985  24376.348555   1839.206465    619.002240
PR18  12333.955059  17171.444072 -14216.751149     75.299050
PR19  11350.422762   2908.138361 -22660.129522   -228.123151
PR20   3191.036945 -17666.941721 -18138.818377    -90.641880
PR22 -12137.929115 -16856.992064  14842.742153     78.225646
PR24  -2632.244777  18302.808729  17588.049110    159.950386
PR25  -6068.016643 -24684.130120  -2040.823145     60.156296
EOF
